{
  "type": "FeatureCollection",
  "features": [
    {
      "type": "Feature",
      "properties": {
        "norad_id": 58701,
        "name": "TIANMU-1 16",
        "group": "weather",
        "lat": -4.792427361246359,
        "lon": 165.12206862214356,
        "alt_km": 494.1175140886444,
        "timestamp": "2025-12-09T14:52:25.809434+00:00",
        "meta_object_name": "TIANMU-1 16",
        "meta_object_id": "2024-004B",
        "meta_epoch": "2025-12-09T07:01:04.045152",
        "meta_mean_motion": 15.24360237,
        "meta_eccentricity": 0.00046529,
        "meta_inclination": 97.4569,
        "meta_ra_of_asc_node": 164.1672,
        "meta_arg_of_pericenter": 311.6172,
        "meta_mean_anomaly": 48.4666,
        "meta_ephemeris_type": 0,
        "meta_classification_type": "U",
        "meta_norad_cat_id": 58701,
        "meta_element_set_no": 999,
        "meta_rev_at_epoch": 10682,
        "meta_bstar": 0.00039085893,
        "meta_mean_motion_dot": 9.503e-05,
        "meta_mean_motion_ddot": 0,
        "tle_line1": "1 58701U 24004B   25343.29240793  .00009503  00000+0  39086-3 0  9999",
        "tle_line2": "2 58701  97.4569 164.1672 0004652 311.6172  48.4666 15.24360237106822"
      },
      "geometry": {
        "type": "Point",
        "coordinates": [
          165.12206862214356,
          -4.792427361246359
        ]
      }
    },
    {
      "type": "Feature",
      "properties": {
        "norad_id": 58702,
        "name": "TIANMU-1 17",
        "group": "weather",
        "lat": 76.9479295938623,
        "lon": 130.48122621385696,
        "alt_km": 486.85798120153413,
        "timestamp": "2025-12-09T14:52:25.809450+00:00",
        "meta_object_name": "TIANMU-1 17",
        "meta_object_id": "2024-004C",
        "meta_epoch": "2025-12-09T06:39:01.744992",
        "meta_mean_motion": 15.24403411,
        "meta_eccentricity": 0.000387,
        "meta_inclination": 97.4604,
        "meta_ra_of_asc_node": 164.5603,
        "meta_arg_of_pericenter": 315.3948,
        "meta_mean_anomaly": 44.6978,
        "meta_ephemeris_type": 0,
        "meta_classification_type": "U",
        "meta_norad_cat_id": 58702,
        "meta_element_set_no": 999,
        "meta_rev_at_epoch": 10681,
        "meta_bstar": 0.00036369984,
        "meta_mean_motion_dot": 8.848e-05,
        "meta_mean_motion_ddot": 0,
        "tle_line1": "1 58702U 24004C   25343.27710353  .00008848  00000+0  36370-3 0  9996",
        "tle_line2": "2 58702  97.4604 164.5603 0003870 315.3948  44.6978 15.24403411106819"
      },
      "geometry": {
        "type": "Point",
        "coordinates": [
          130.48122621385696,
          76.9479295938623
        ]
      }
    },
    {
      "type": "Feature",
      "properties": {
        "norad_id": 58703,
        "name": "TIANMU-1 18",
        "group": "weather",
        "lat": 8.927363741175787,
        "lon": -13.724189761880227,
        "alt_km": 496.25362555294487,
        "timestamp": "2025-12-09T14:52:25.809472+00:00",
        "meta_object_name": "TIANMU-1 18",
        "meta_object_id": "2024-004D",
        "meta_epoch": "2025-12-09T07:49:29.260704",
        "meta_mean_motion": 15.24394627,
        "meta_eccentricity": 0.00032346,
        "meta_inclination": 97.4621,
        "meta_ra_of_asc_node": 164.8036,
        "meta_arg_of_pericenter": 316.461,
        "meta_mean_anomaly": 43.6372,
        "meta_ephemeris_type": 0,
        "meta_classification_type": "U",
        "meta_norad_cat_id": 58703,
        "meta_element_set_no": 999,
        "meta_rev_at_epoch": 10682,
        "meta_bstar": 0.00040695163,
        "meta_mean_motion_dot": 9.907e-05,
        "meta_mean_motion_ddot": 0,
        "tle_line1": "1 58703U 24004D   25343.32603311  .00009907  00000+0  40695-3 0  9990",
        "tle_line2": "2 58703  97.4621 164.8036 0003234 316.4610  43.6372 15.24394627106820"
      },
      "geometry": {
        "type": "Point",
        "coordinates": [
          -13.724189761880227,
          8.927363741175787
        ]
      }
    },
    {
      "type": "Feature",
      "properties": {
        "norad_id": 58990,
        "name": "INSAT-3DS",
        "group": "weather",
        "lat": 0.0002004921332512656,
        "lon": 23.806489130756646,
        "alt_km": 35790.13160090896,
        "timestamp": "2025-12-09T14:52:25.809492+00:00",
        "meta_object_name": "INSAT-3DS",
        "meta_object_id": "2024-033A",
        "meta_epoch": "2025-12-09T03:41:28.376160",
        "meta_mean_motion": 1.00269594,
        "meta_eccentricity": 0.00016503,
        "meta_inclination": 0.019,
        "meta_ra_of_asc_node": 85.8021,
        "meta_arg_of_pericenter": 178.7722,
        "meta_mean_anomaly": 311.024,
        "meta_ephemeris_type": 0,
        "meta_classification_type": "U",
        "meta_norad_cat_id": 58990,
        "meta_element_set_no": 999,
        "meta_rev_at_epoch": 4516,
        "meta_bstar": 0,
        "meta_mean_motion_dot": -1.53e-06,
        "meta_mean_motion_ddot": 0,
        "tle_line1": "1 58990U 24033A   25343.15380065 -.00000153  00000+0  00000+0 0  9996",
        "tle_line2": "2 58990   0.0190  85.8021 0001650 178.7722 311.0240  1.00269594 45166"
      },
      "geometry": {
        "type": "Point",
        "coordinates": [
          23.806489130756646,
          0.0002004921332512656
        ]
      }
    },
    {
      "type": "Feature",
      "properties": {
        "norad_id": 59051,
        "name": "METEOR-M2 4",
        "group": "weather",
        "lat": 48.938305613394654,
        "lon": -69.51675916951177,
        "alt_km": 808.9352235824645,
        "timestamp": "2025-12-09T14:52:25.809513+00:00",
        "meta_object_name": "METEOR-M2 4",
        "meta_object_id": "2024-039A",
        "meta_epoch": "2025-12-09T07:53:17.889792",
        "meta_mean_motion": 14.22400489,
        "meta_eccentricity": 0.0007235,
        "meta_inclination": 98.6761,
        "meta_ra_of_asc_node": 300.2912,
        "meta_arg_of_pericenter": 8.2967,
        "meta_mean_anomaly": 351.8329,
        "meta_ephemeris_type": 0,
        "meta_classification_type": "U",
        "meta_norad_cat_id": 59051,
        "meta_element_set_no": 999,
        "meta_rev_at_epoch": 9227,
        "meta_bstar": 6.4406306e-05,
        "meta_mean_motion_dot": 1e-06,
        "meta_mean_motion_ddot": 0,
        "tle_line1": "1 59051U 24039A   25343.32867928  .00000100  00000+0  64406-4 0  9994",
        "tle_line2": "2 59051  98.6761 300.2912 0007235   8.2967 351.8329 14.22400489 92270"
      },
      "geometry": {
        "type": "Point",
        "coordinates": [
          -69.51675916951177,
          48.938305613394654
        ]
      }
    },
    {
      "type": "Feature",
      "properties": {
        "norad_id": 60133,
        "name": "GOES 19",
        "group": "weather",
        "lat": -0.012935104775147971,
        "lon": -133.4850511953088,
        "alt_km": 35785.03902316557,
        "timestamp": "2025-12-09T14:52:25.809532+00:00",
        "meta_object_name": "GOES 19",
        "meta_object_id": "2024-119A",
        "meta_epoch": "2025-12-09T06:14:31.267104",
        "meta_mean_motion": 1.00271382,
        "meta_eccentricity": 0.00013608,
        "meta_inclination": 0.0318,
        "meta_ra_of_asc_node": 187.6725,
        "meta_arg_of_pericenter": 117.0797,
        "meta_mean_anomaly": 151.9501,
        "meta_ephemeris_type": 0,
        "meta_classification_type": "U",
        "meta_norad_cat_id": 60133,
        "meta_element_set_no": 999,
        "meta_rev_at_epoch": 506,
        "meta_bstar": 0,
        "meta_mean_motion_dot": -2.46e-06,
        "meta_mean_motion_ddot": 0,
        "tle_line1": "1 60133U 24119A   25343.26008411 -.00000246  00000+0  00000+0 0  9990",
        "tle_line2": "2 60133   0.0318 187.6725 0001360 117.0797 151.9501  1.00271382  5062"
      },
      "geometry": {
        "type": "Point",
        "coordinates": [
          -133.4850511953088,
          -0.012935104775147971
        ]
      }
    },
    {
      "type": "Feature",
      "properties": {
        "norad_id": 65815,
        "name": "FENGYUN 3H",
        "group": "weather",
        "lat": -42.843712759213226,
        "lon": -68.5983138567258,
        "alt_km": 832.535526091965,
        "timestamp": "2025-12-09T14:52:25.809550+00:00",
        "meta_object_name": "FENGYUN 3H",
        "meta_object_id": "2025-219A",
        "meta_epoch": "2025-12-09T06:37:19.495776",
        "meta_mean_motion": 14.19903273,
        "meta_eccentricity": 6.057e-05,
        "meta_inclination": 98.658,
        "meta_ra_of_asc_node": 282.9417,
        "meta_arg_of_pericenter": 84.6333,
        "meta_mean_anomaly": 275.4913,
        "meta_ephemeris_type": 0,
        "meta_classification_type": "U",
        "meta_norad_cat_id": 65815,
        "meta_element_set_no": 999,
        "meta_rev_at_epoch": 1043,
        "meta_bstar": 0.00011695347,
        "meta_mean_motion_dot": 2.05e-06,
        "meta_mean_motion_ddot": 0,
        "tle_line1": "1 65815U 25219A   25343.27592009  .00000205  00000+0  11695-3 0  9996",
        "tle_line2": "2 65815  98.6580 282.9417 0000605  84.6333 275.4913 14.19903273 10432"
      },
      "geometry": {
        "type": "Point",
        "coordinates": [
          -68.5983138567258,
          -42.843712759213226
        ]
      }
    }
  ]
}